[{"OBJECT_NAME":"STARLINK-30158","OBJECT_ID":"2023-105J","EPOCH":"2025-07-28T23:05:40.495200","MEAN_MOTION":15.02534336,"ECCENTRICITY":0.0001156,"INCLINATION":43.005,"RA_OF_ASC_NODE":37.5388,"ARG_OF_PERICENTER":252.7124,"MEAN_ANOMALY":107.3592,"EPHEMERIS_TYPE":0,"CLASSIFICATION_TYPE":"U","NORAD_CAT_ID":57438,"ELEMENT_SET_NO":999,"REV_AT_EPOCH":11191,"BSTAR":1.7109e-5,"MEAN_MOTION_DOT":2.8e-7,"MEAN_MOTION_DDOT":0},{"OBJECT_NAME":"STARLINK-30159","OBJECT_ID":"2023-105L","EPOCH":"2025-07-28T19:44:38.209344","MEAN_MOTION":15.02526808,"ECCENTRICITY":0.0001147,"INCLINATION":43.0056,"RA_OF_ASC_NODE":38.2118,"ARG_OF_PERICENTER":262.8245,"MEAN_ANOMALY":97.2467,"EPHEMERIS_TYPE":0,"CLASSIFICATION_TYPE":"U","NORAD_CAT_ID":57440,"ELEMENT_SET_NO":999,"REV_AT_EPOCH":11174,"BSTAR":4.2589e-6,"MEAN_MOTION_DOT":-1.46e-6,"MEAN_MOTION_DDOT":0},{"OBJECT_NAME":"STARLINK-30160","OBJECT_ID":"2023-105M","EPOCH":"2025-07-28T19:39:50.215680","MEAN_MOTION":15.02531554,"ECCENTRICITY":9.68e-5,"INCLINATION":43.0035,"RA_OF_ASC_NODE":38.1884,"ARG_OF_PERICENTER":267.7605,"MEAN_ANOMALY":92.3126,"EPHEMERIS_TYPE":0,"CLASSIFICATION_TYPE":"U","NORAD_CAT_ID":57441,"ELEMENT_SET_NO":999,"REV_AT_EPOCH":11172,"BSTAR":1.566e-6,"MEAN_MOTION_DOT":-1.82e-6,"MEAN_MOTION_DDOT":0},{"OBJECT_NAME":"STARLINK-30146","OBJECT_ID":"2023-105N","EPOCH":"2025-07-29T05:09:26.031168","MEAN_MOTION":15.02516009,"ECCENTRICITY":0.000142,"INCLINATION":43.0051,"RA_OF_ASC_NODE":35.9931,"ARG_OF_PERICENTER":263.8448,"MEAN_ANOMALY":96.2232,"EPHEMERIS_TYPE":0,"CLASSIFICATION_TYPE":"U","NORAD_CAT_ID":57442,"ELEMENT_SET_NO":999,"REV_AT_EPOCH":11201,"BSTAR":-0.00014587,"MEAN_MOTION_DOT":-2.172e-5,"MEAN_MOTION_DDOT":0},{"OBJECT_NAME":"STARLINK-30197","OBJECT_ID":"2023-105P","EPOCH":"2025-07-28T22:41:41.790048","MEAN_MOTION":15.02536051,"ECCENTRICITY":0.0001186,"INCLINATION":43.004,"RA_OF_ASC_NODE":37.4147,"ARG_OF_PERICENTER":266.627,"MEAN_ANOMALY":93.4436,"EPHEMERIS_TYPE":0,"CLASSIFICATION_TYPE":"U","NORAD_CAT_ID":57443,"ELEMENT_SET_NO":999,"REV_AT_EPOCH":11197,"BSTAR":-3.3352e-7,"MEAN_MOTION_DOT":-2.08e-6,"MEAN_MOTION_DDOT":0},{"OBJECT_NAME":"STARLINK-30181","OBJECT_ID":"2023-105Q","EPOCH":"2025-07-28T19:11:03.670656","MEAN_MOTION":15.02537868,"ECCENTRICITY":0.0001191,"INCLINATION":43.006,"RA_OF_ASC_NODE":38.0375,"ARG_OF_PERICENTER":258.647,"MEAN_ANOMALY":101.4238,"EPHEMERIS_TYPE":0,"CLASSIFICATION_TYPE":"U","NORAD_CAT_ID":57444,"ELEMENT_SET_NO":999,"REV_AT_EPOCH":11195,"BSTAR":9.1737e-6,"MEAN_MOTION_DOT":-8.0e-7,"MEAN_MOTION_DDOT":0},{"OBJECT_NAME":"STARLINK-30215","OBJECT_ID":"2023-105R","EPOCH":"2025-07-28T19:17:27.697056","MEAN_MOTION":15.02531727,"ECCENTRICITY":0.0001199,"INCLINATION":43.0016,"RA_OF_ASC_NODE":38.0686,"ARG_OF_PERICENTER":270.07,"MEAN_ANOMALY":90.0005,"EPHEMERIS_TYPE":0,"CLASSIFICATION_TYPE":"U","NORAD_CAT_ID":57445,"ELEMENT_SET_NO":999,"REV_AT_EPOCH":11169,"BSTAR":-5.9998e-6,"MEAN_MOTION_DOT":-2.85e-6,"MEAN_MOTION_DDOT":0},{"OBJECT_NAME":"STARLINK-30162","OBJECT_ID":"2023-105S","EPOCH":"2025-07-28T19:06:41.960736","MEAN_MOTION":15.02535614,"ECCENTRICITY":0.0001192,"INCLINATION":43.0049,"RA_OF_ASC_NODE":25.2795,"ARG_OF_PERICENTER":265.1523,"MEAN_ANOMALY":94.9184,"EPHEMERIS_TYPE":0,"CLASSIFICATION_TYPE":"U","NORAD_CAT_ID":57446,"ELEMENT_SET_NO":999,"REV_AT_EPOCH":11204,"BSTAR":0.00015889,"MEAN_MOTION_DOT":1.943e-5,"MEAN_MOTION_DDOT":0},{"OBJECT_NAME":"STARLINK-30178","OBJECT_ID":"2023-105T","EPOCH":"2025-07-28T19:15:51.709248","MEAN_MOTION":15.02543691,"ECCENTRICITY":0.000117,"INCLINATION":43.0043,"RA_OF_ASC_NODE":38.0628,"ARG_OF_PERICENTER":274.7098,"MEAN_ANOMALY":85.361,"EPHEMERIS_TYPE":0,"CLASSIFICATION_TYPE":"U","NORAD_CAT_ID":57447,"ELEMENT_SET_NO":999,"REV_AT_EPOCH":11189,"BSTAR":-1.0737e-5,"MEAN_MOTION_DOT":-3.49e-6,"MEAN_MOTION_DDOT":0},{"OBJECT_NAME":"STARLINK-30196","OBJECT_ID":"2023-105U","EPOCH":"2025-07-28T19:01:28.253568","MEAN_MOTION":15.02535888,"ECCENTRICITY":0.0001298,"INCLINATION":43.0065,"RA_OF_ASC_NODE":37.9889,"ARG_OF_PERICENTER":263.1239,"MEAN_ANOMALY":96.9456,"EPHEMERIS_TYPE":0,"CLASSIFICATION_TYPE":"U","NORAD_CAT_ID":57448,"ELEMENT_SET_NO":999,"REV_AT_EPOCH":11172,"BSTAR":3.3741e-5,"MEAN_MOTION_DOT":2.52e-6,"MEAN_MOTION_DDOT":0},{"OBJECT_NAME":"STARLINK-30225","OBJECT_ID":"2023-105V","EPOCH":"2025-07-28T18:56:40.628832","MEAN_MOTION":15.02537803,"ECCENTRICITY":0.0001195,"INCLINATION":43.0047,"RA_OF_ASC_NODE":37.9598,"ARG_OF_PERICENTER":263.5649,"MEAN_ANOMALY":96.5057,"EPHEMERIS_TYPE":0,"CLASSIFICATION_TYPE":"U","NORAD_CAT_ID":57449,"ELEMENT_SET_NO":999,"REV_AT_EPOCH":11198,"BSTAR":8.2371e-5,"MEAN_MOTION_DOT":9.09e-6,"MEAN_MOTION_DDOT":0},{"OBJECT_NAME":"STARLINK-30217","OBJECT_ID":"2023-105W","EPOCH":"2025-07-28T18:42:43.816320","MEAN_MOTION":15.02544766,"ECCENTRICITY":9.65e-5,"INCLINATION":43.0041,"RA_OF_ASC_NODE":25.2041,"ARG_OF_PERICENTER":259.2433,"MEAN_ANOMALY":100.8301,"EPHEMERIS_TYPE":0,"CLASSIFICATION_TYPE":"U","NORAD_CAT_ID":57450,"ELEMENT_SET_NO":999,"REV_AT_EPOCH":11204,"BSTAR":0.00012468,"MEAN_MOTION_DOT":1.481e-5,"MEAN_MOTION_DDOT":0},{"OBJECT_NAME":"STARLINK-30216","OBJECT_ID":"2023-105X","EPOCH":"2025-07-28T18:51:53.478432","MEAN_MOTION":15.02533809,"ECCENTRICITY":0.0001066,"INCLINATION":43.004,"RA_OF_ASC_NODE":37.9496,"ARG_OF_PERICENTER":260.6475,"MEAN_ANOMALY":99.4247,"EPHEMERIS_TYPE":0,"CLASSIFICATION_TYPE":"U","NORAD_CAT_ID":57451,"ELEMENT_SET_NO":999,"REV_AT_EPOCH":11174,"BSTAR":3.9575e-6,"MEAN_MOTION_DOT":-1.5e-6,"MEAN_MOTION_DDOT":0},{"OBJECT_NAME":"STARLINK-30165","OBJECT_ID":"2023-107A","EPOCH":"2025-07-28T03:35:26.894112","MEAN_MOTION":15.02532439,"ECCENTRICITY":0.0002979,"INCLINATION":43.0041,"RA_OF_ASC_NODE":119.3252,"ARG_OF_PERICENTER":249.2901,"MEAN_ANOMALY":110.7622,"EPHEMERIS_TYPE":0,"CLASSIFICATION_TYPE":"U","NORAD_CAT_ID":57457,"ELEMENT_SET_NO":999,"REV_AT_EPOCH":11132,"BSTAR":3.1297e-5,"MEAN_MOTION_DOT":2.19e-6,"MEAN_MOTION_DDOT":0},{"OBJECT_NAME":"STARLINK-30140","OBJECT_ID":"2023-107B","EPOCH":"2025-07-29T00:15:06.963264","MEAN_MOTION":15.02534102,"ECCENTRICITY":9.34e-5,"INCLINATION":43.0033,"RA_OF_ASC_NODE":114.6027,"ARG_OF_PERICENTER":260.5815,"MEAN_ANOMALY":99.4922,"EPHEMERIS_TYPE":0,"CLASSIFICATION_TYPE":"U","NORAD_CAT_ID":57458,"ELEMENT_SET_NO":999,"REV_AT_EPOCH":11145,"BSTAR":-3.4487e-6,"MEAN_MOTION_DOT":-2.5e-6,"MEAN_MOTION_DDOT":0},{"OBJECT_NAME":"STARLINK-30185","OBJECT_ID":"2023-107C","EPOCH":"2025-07-28T03:25:51.010464","MEAN_MOTION":15.02535744,"ECCENTRICITY":0.000113,"INCLINATION":43.0036,"RA_OF_ASC_NODE":119.2748,"ARG_OF_PERICENTER":242.9843,"MEAN_ANOMALY":117.0884,"EPHEMERIS_TYPE":0,"CLASSIFICATION_TYPE":"U","NORAD_CAT_ID":57459,"ELEMENT_SET_NO":999,"REV_AT_EPOCH":11133,"BSTAR":7.466e-5,"MEAN_MOTION_DOT":8.05e-6,"MEAN_MOTION_DDOT":0},{"OBJECT_NAME":"STARLINK-30077","OBJECT_ID":"2023-107D","EPOCH":"2025-07-28T03:21:02.996928","MEAN_MOTION":15.02529533,"ECCENTRICITY":0.0001108,"INCLINATION":43.0029,"RA_OF_ASC_NODE":119.2475,"ARG_OF_PERICENTER":272.1625,"MEAN_ANOMALY":87.9091,"EPHEMERIS_TYPE":0,"CLASSIFICATION_TYPE":"U","NORAD_CAT_ID":57460,"ELEMENT_SET_NO":999,"REV_AT_EPOCH":11133,"BSTAR":8.9782e-5,"MEAN_MOTION_DOT":1.009e-5,"MEAN_MOTION_DDOT":0}]
