STARLINK-30158          
1 57438U 23105J   25209.96227425  .00000028  00000+0  17109-4 0  9994
2 57438  43.0050  37.5388 0001156 252.7124 107.3592 15.02534336111913
STARLINK-30159          
1 57440U 23105L   25209.82266446 -.00000146  00000+0  42589-5 0  9991
2 57440  43.0056  38.2118 0001147 262.8245  97.2467 15.02526808111741
STARLINK-30160          
1 57441U 23105M   25209.81933120 -.00000182  00000+0  15660-5 0  9991
2 57441  43.0035  38.1884 0000968 267.7605  92.3126 15.02531554111722
STARLINK-30146          
1 57442U 23105N   25210.21488462 -.00002172  00000+0 -14587-3 0  9999
2 57442  43.0051  35.9931 0001420 263.8448  96.2232 15.02516009112017
STARLINK-30197          
1 57443U 23105P   25209.94562257 -.00000208  00000+0 -33352-6 0  9995
2 57443  43.0040  37.4147 0001186 266.6270  93.4436 15.02536051111973
STARLINK-30181          
1 57444U 23105Q   25209.79934804 -.00000080  00000+0  91737-5 0  9997
2 57444  43.0060  38.0375 0001191 258.6470 101.4238 15.02537868111950
STARLINK-30215          
1 57445U 23105R   25209.80379279 -.00000285  00000+0 -59998-5 0  9990
2 57445  43.0016  38.0686 0001199 270.0700  90.0005 15.02531727111693
STARLINK-30162          
1 57446U 23105S   25209.79631899  .00001943  00000+0  15889-3 0  9997
2 57446  43.0049  25.2795 0001192 265.1523  94.9184 15.02535614112040
STARLINK-30178          
1 57447U 23105T   25209.80268182 -.00000349  00000+0 -10737-4 0  9990
2 57447  43.0043  38.0628 0001170 274.7098  85.3610 15.02543691111895
STARLINK-30196          
1 57448U 23105U   25209.79268812  .00000252  00000+0  33741-4 0  9990
2 57448  43.0065  37.9889 0001298 263.1239  96.9456 15.02535888111724
STARLINK-30225          
1 57449U 23105V   25209.78935913  .00000909  00000+0  82371-4 0  9995
2 57449  43.0047  37.9598 0001195 263.5649  96.5057 15.02537803111987
STARLINK-30217          
1 57450U 23105W   25209.77967380  .00001481  00000+0  12468-3 0  9994
2 57450  43.0041  25.2041 0000965 259.2433 100.8301 15.02544766112048
STARLINK-30216          
1 57451U 23105X   25209.78603563 -.00000150  00000+0  39575-5 0  9999
2 57451  43.0040  37.9496 0001066 260.6475  99.4247 15.02533809111741
STARLINK-30165          
1 57457U 23107A   25209.14961683  .00000219  00000+0  31297-4 0  9994
2 57457  43.0041 119.3252 0002979 249.2901 110.7622 15.02532439111320
STARLINK-30140          
1 57458U 23107B   25210.01049726 -.00000250  00000+0 -34487-5 0  9990
2 57458  43.0033 114.6027 0000934 260.5815  99.4922 15.02534102111458
STARLINK-30185          
1 57459U 23107C   25209.14295151  .00000805  00000+0  74660-4 0  9998
2 57459  43.0036 119.2748 0001130 242.9843 117.0884 15.02535744111331
STARLINK-30077          
1 57460U 23107D   25209.13961802  .00001009  00000+0  89782-4 0  9990
2 57460  43.0029 119.2475 0001108 272.1625  87.9091 15.02529533111334
